QIANFAN-81              
1 63167U 25046J   26004.81884429  .00000265  00000+0  39097-3 0  9999
2 63167  88.9784 317.4852 0016669  56.5324 303.7418 13.51011743 50605
QIANFAN-82              
1 63168U 25046K   26004.85335855  .00000259  00000+0  38280-3 0  9994
2 63168  88.9784 317.5256 0014874  63.5719 296.6957 13.50984638 50594
QIANFAN-83              
1 63169U 25046L   26004.84090476  .00000318  00000+0  39680-3 0  9992
2 63169  88.9785 317.2580 0016007  49.5986 310.6565 13.61985056 50749
QIANFAN-84              
1 63170U 25046M   26004.80691895  .00000249  00000+0  36643-3 0  9991
2 63170  88.9783 317.6630 0017806  60.2964 299.9957 13.50994670 50512
QIANFAN-85              
1 63171U 25046N   26004.80384201  .00000258  00000+0  38096-3 0  9996
2 63171  88.9783 317.5350 0015213  62.6228 297.6470 13.50985690 50584
QIANFAN-86              
1 63172U 25046P   26004.81217677  .00000256  00000+0  37830-3 0  9993
2 63172  88.9786 317.3969 0013121  66.5240 293.7288 13.50985232 50660
QIANFAN-87              
1 63173U 25046Q   26004.85760869  .00000262  00000+0  38756-3 0  9999
2 63173  88.9782 317.5029 0013739  62.3178 297.9365 13.50982823 50604
QIANFAN-88              
1 63174U 25046R   26004.79976551  .00000249  00000+0  36678-3 0  9996
2 63174  88.9784 317.4640 0014184  69.2760 290.9910 13.50989325 50628
